CS2                     
1 49262U 21088C   26068.73485932  .00018033  00000+0  56178-3 0  9999
2 49262  97.3928 134.2907 0011637  82.3491 277.9072 15.33255930245263
STARLINK-31716          
1 59377U 24062D   26068.67171446 -.00000207  00000+0  51345-5 0  9995
2 59377  53.1595 207.0980 0000929  87.9131 272.1976 15.30192908110303
